{
  "type": "FeatureCollection",
  "features": [
    {
      "type": "Feature",
      "properties": {
        "norad_id": 30533,
        "name": "FENGYUN 1C DEB",
        "group": "fengyun-1c-debris",
        "lat": 48.94210941107709,
        "lon": -59.882501556301946,
        "alt_km": 661.1563884994839,
        "timestamp": "2025-12-07T07:31:36.575232+00:00",
        "meta_object_name": "FENGYUN 1C DEB",
        "meta_object_id": "1999-025AJX",
        "meta_epoch": "2025-12-06T19:57:47.789568",
        "meta_mean_motion": 14.53512573,
        "meta_eccentricity": 0.00835664,
        "meta_inclination": 98.8335,
        "meta_ra_of_asc_node": 109.3257,
        "meta_arg_of_pericenter": 166.9927,
        "meta_mean_anomaly": 324.0188,
        "meta_ephemeris_type": 0,
        "meta_classification_type": "U",
        "meta_norad_cat_id": 30533,
        "meta_element_set_no": 999,
        "meta_rev_at_epoch": 97735,
        "meta_bstar": 0.0066045447,
        "meta_mean_motion_dot": 0.00028917,
        "meta_mean_motion_ddot": 0,
        "tle_line1": "1 30533U 99025AJX 25340.83180312  .00028917  00000+0  66045-2 0  9998",
        "tle_line2": "2 30533  98.8335 109.3257 0083566 166.9927 324.0188 14.53512573977350"
      },
      "geometry": {
        "type": "Point",
        "coordinates": [
          -59.882501556301946,
          48.94210941107709
        ]
      }
    },
    {
      "type": "Feature",
      "properties": {
        "norad_id": 30539,
        "name": "FENGYUN 1C DEB",
        "group": "fengyun-1c-debris",
        "lat": -1.891755104239529,
        "lon": 141.1321633276405,
        "alt_km": 739.5352873040129,
        "timestamp": "2025-12-07T07:31:36.575241+00:00",
        "meta_object_name": "FENGYUN 1C DEB",
        "meta_object_id": "1999-025AKD",
        "meta_epoch": "2025-12-06T22:25:57.222912",
        "meta_mean_motion": 14.55336844,
        "meta_eccentricity": 0.01158187,
        "meta_inclination": 98.8793,
        "meta_ra_of_asc_node": 321.0254,
        "meta_arg_of_pericenter": 293.5659,
        "meta_mean_anomaly": 65.3406,
        "meta_ephemeris_type": 0,
        "meta_classification_type": "U",
        "meta_norad_cat_id": 30539,
        "meta_element_set_no": 999,
        "meta_rev_at_epoch": 99281,
        "meta_bstar": 0.00088888049,
        "meta_mean_motion_dot": 4.163e-05,
        "meta_mean_motion_ddot": 0,
        "tle_line1": "1 30539U 99025AKD 25340.93469008  .00004163  00000+0  88888-3 0  9994",
        "tle_line2": "2 30539  98.8793 321.0254 0115818 293.5659  65.3406 14.55336844992812"
      },
      "geometry": {
        "type": "Point",
        "coordinates": [
          141.1321633276405,
          -1.891755104239529
        ]
      }
    },
    {
      "type": "Feature",
      "properties": {
        "norad_id": 30540,
        "name": "FENGYUN 1C DEB",
        "group": "fengyun-1c-debris",
        "lat": 55.539088122927524,
        "lon": -77.30447882721,
        "alt_km": 752.459037569788,
        "timestamp": "2025-12-07T07:31:36.575252+00:00",
        "meta_object_name": "FENGYUN 1C DEB",
        "meta_object_id": "1999-025AKE",
        "meta_epoch": "2025-12-06T05:54:13.573152",
        "meta_mean_motion": 14.32173432,
        "meta_eccentricity": 0.0052194,
        "meta_inclination": 98.8793,
        "meta_ra_of_asc_node": 88.4361,
        "meta_arg_of_pericenter": 81.6737,
        "meta_mean_anomaly": 299.8603,
        "meta_ephemeris_type": 0,
        "meta_classification_type": "U",
        "meta_norad_cat_id": 30540,
        "meta_element_set_no": 999,
        "meta_rev_at_epoch": 97193,
        "meta_bstar": 0.0037320575,
        "meta_mean_motion_dot": 0.00010169,
        "meta_mean_motion_ddot": 0,
        "tle_line1": "1 30540U 99025AKE 25340.24599043  .00010169  00000+0  37321-2 0  9991",
        "tle_line2": "2 30540  98.8793  88.4361 0052194  81.6737 299.8603 14.32173432971937"
      },
      "geometry": {
        "type": "Point",
        "coordinates": [
          -77.30447882721,
          55.539088122927524
        ]
      }
    },
    {
      "type": "Feature",
      "properties": {
        "norad_id": 30541,
        "name": "FENGYUN 1C DEB",
        "group": "fengyun-1c-debris",
        "lat": -24.60066942921724,
        "lon": 31.942347498090214,
        "alt_km": 828.4960588659414,
        "timestamp": "2025-12-07T07:31:36.575283+00:00",
        "meta_object_name": "FENGYUN 1C DEB",
        "meta_object_id": "1999-025AKF",
        "meta_epoch": "2025-12-05T13:27:20.380320",
        "meta_mean_motion": 14.22997865,
        "meta_eccentricity": 0.00186719,
        "meta_inclination": 98.6952,
        "meta_ra_of_asc_node": 26.1939,
        "meta_arg_of_pericenter": 105.9576,
        "meta_mean_anomaly": 254.3661,
        "meta_ephemeris_type": 0,
        "meta_classification_type": "U",
        "meta_norad_cat_id": 30541,
        "meta_element_set_no": 999,
        "meta_rev_at_epoch": 97225,
        "meta_bstar": 0.0021981633,
        "meta_mean_motion_dot": 4.918e-05,
        "meta_mean_motion_ddot": 0,
        "tle_line1": "1 30541U 99025AKF 25339.56065255  .00004918  00000+0  21982-2 0  9999",
        "tle_line2": "2 30541  98.6952  26.1939 0018671 105.9576 254.3661 14.22997865972255"
      },
      "geometry": {
        "type": "Point",
        "coordinates": [
          31.942347498090214,
          -24.60066942921724
        ]
      }
    },
    {
      "type": "Feature",
      "properties": {
        "norad_id": 30542,
        "name": "FENGYUN 1C DEB",
        "group": "fengyun-1c-debris",
        "lat": 23.768949577740766,
        "lon": -165.87924236303107,
        "alt_km": 888.6499676389967,
        "timestamp": "2025-12-07T07:31:36.575294+00:00",
        "meta_object_name": "FENGYUN 1C DEB",
        "meta_object_id": "1999-025AKG",
        "meta_epoch": "2025-12-06T14:18:05.937984",
        "meta_mean_motion": 14.06969156,
        "meta_eccentricity": 0.00277336,
        "meta_inclination": 98.7877,
        "meta_ra_of_asc_node": 9.5171,
        "meta_arg_of_pericenter": 351.8386,
        "meta_mean_anomaly": 130.6366,
        "meta_ephemeris_type": 0,
        "meta_classification_type": "U",
        "meta_norad_cat_id": 30542,
        "meta_element_set_no": 999,
        "meta_rev_at_epoch": 96832,
        "meta_bstar": 0.0003354745,
        "meta_mean_motion_dot": 5.19e-06,
        "meta_mean_motion_ddot": 0,
        "tle_line1": "1 30542U 99025AKG 25340.59590206  .00000519  00000+0  33547-3 0  9998",
        "tle_line2": "2 30542  98.7877   9.5171 0027733 351.8386 130.6366 14.06969156968321"
      },
      "geometry": {
        "type": "Point",
        "coordinates": [
          -165.87924236303107,
          23.768949577740766
        ]
      }
    },
    {
      "type": "Feature",
      "properties": {
        "norad_id": 30543,
        "name": "FENGYUN 1C DEB",
        "group": "fengyun-1c-debris",
        "lat": -64.73642335178212,
        "lon": 10.272313248877584,
        "alt_km": 909.8641571632324,
        "timestamp": "2025-12-07T07:31:36.575305+00:00",
        "meta_object_name": "FENGYUN 1C DEB",
        "meta_object_id": "1999-025AKH",
        "meta_epoch": "2025-12-06T23:22:57.441216",
        "meta_mean_motion": 14.03731335,
        "meta_eccentricity": 0.00726399,
        "meta_inclination": 98.8327,
        "meta_ra_of_asc_node": 350.7052,
        "meta_arg_of_pericenter": 49.5363,
        "meta_mean_anomaly": 331.1421,
        "meta_ephemeris_type": 0,
        "meta_classification_type": "U",
        "meta_norad_cat_id": 30543,
        "meta_element_set_no": 999,
        "meta_rev_at_epoch": 96424,
        "meta_bstar": 0.00051074064,
        "meta_mean_motion_dot": 7.8e-06,
        "meta_mean_motion_ddot": 0,
        "tle_line1": "1 30543U 99025AKH 25340.97427594  .00000780  00000+0  51074-3 0  9995",
        "tle_line2": "2 30543  98.8327 350.7052 0072639  49.5363 331.1421 14.03731335964243"
      },
      "geometry": {
        "type": "Point",
        "coordinates": [
          10.272313248877584,
          -64.73642335178212
        ]
      }
    },
    {
      "type": "Feature",
      "properties": {
        "norad_id": 30545,
        "name": "FENGYUN 1C DEB",
        "group": "fengyun-1c-debris",
        "lat": 72.5476768613094,
        "lon": 44.52242720993851,
        "alt_km": 1102.1762982940108,
        "timestamp": "2025-12-07T07:31:36.575314+00:00",
        "meta_object_name": "FENGYUN 1C DEB",
        "meta_object_id": "1999-025AKK",
        "meta_epoch": "2025-12-06T09:13:09.444576",
        "meta_mean_motion": 13.20774989,
        "meta_eccentricity": 0.04728793,
        "meta_inclination": 98.9997,
        "meta_ra_of_asc_node": 193.4513,
        "meta_arg_of_pericenter": 26.2787,
        "meta_mean_anomaly": 336.1516,
        "meta_ephemeris_type": 0,
        "meta_classification_type": "U",
        "meta_norad_cat_id": 30545,
        "meta_element_set_no": 999,
        "meta_rev_at_epoch": 90846,
        "meta_bstar": 0.00085738162,
        "meta_mean_motion_dot": 5.92e-06,
        "meta_mean_motion_ddot": 0,
        "tle_line1": "1 30545U 99025AKK 25340.38413709  .00000592  00000+0  85738-3 0  9990",
        "tle_line2": "2 30545  98.9997 193.4513 0472879  26.2787 336.1516 13.20774989908467"
      },
      "geometry": {
        "type": "Point",
        "coordinates": [
          44.52242720993851,
          72.5476768613094
        ]
      }
    }
  ]
}